NORAD_CAT_ID,OBJECT_NAME,OBJECT_TYPE,EPOCH,MEAN_MOTION,ECCENTRICITY,INCLINATION,RA_OF_ASC_NODE,ARG_OF_PERICENTER,MEAN_ANOMALY,BSTAR,MEAN_MOTION_DOT,MEAN_MOTION_DDOT,TLE_LINE0,TLE_LINE1,TLE_LINE2,SEMIMAJOR_AXIS,PERIOD,APOGEE,PERIGEE,DECAYED
56493.0,STARLINK-5841,PAYLOAD,2024-04-25 03:42:08,14.98324525,0.0002679,70.0024,7.6888,247.5088,112.5787,3.4572e-05,3.2e-06,0.0,0 STARLINK-5841,1 56493U 23064AX  24116.15426430  .00000320  00000-0  34572-4 0  9991,2 56493  70.0024   7.6888 0002679 247.5088 112.5787 14.98324525 54347,6950.21,96.107,573.937,570.213,0.0
56493.0,STARLINK-5841,PAYLOAD,2024-04-25 21:19:34,14.98353949,0.0002378,70.0039,5.8408,233.9697,126.1242,0.00023946,2.767e-05,0.0,0 STARLINK-5841,1 56493U 23064AX  24116.88859314  .00002767  00000-0  23946-3 0  9991,2 56493  70.0039   5.8408 0002378 233.9697 126.1242 14.98353949 54813,6950.119,96.105,573.637,570.331,0.0
56493.0,STARLINK-5841,PAYLOAD,2024-04-26 10:08:39,14.9834156,0.0002394,70.0024,4.487,287.6291,72.4607,-4.2781e-05,-6.03e-06,0.0,0 STARLINK-5841,1 56493U 23064AX  24117.42268348 -.00000603  00000-0 -42781-4 0  9991,2 56493  70.0024   4.4870 0002394 287.6291  72.4607 14.98341560 54891,6950.157,96.106,573.686,570.358,0.0
56493.0,STARLINK-5841,PAYLOAD,2024-04-26 19:45:30,14.98305813,0.000286,70.0021,3.48,267.6294,92.4538,-0.00021703,-2.68e-05,0.0,0 STARLINK-5841,1 56493U 23064AX  24117.82327042 -.00002680  00000-0 -21703-3 0  9999,2 56493  70.0021   3.4800 0002860 267.6294  92.4538 14.98305813 54952,6950.268,96.109,574.12,570.145,0.0
56493.0,STARLINK-5841,PAYLOAD,2024-04-27 02:10:02,14.98315877,0.0002876,70.0011,2.8052,269.5019,90.581,-0.00013385,-1.689e-05,0.0,0 STARLINK-5841,1 56493U 23064AX  24118.09030408 -.00001689  00000-0 -13385-3 0  9991,2 56493  70.0011   2.8052 0002876 269.5019  90.5810 14.98315877 54993,6950.237,96.108,574.1,570.103,0.0
56493.0,STARLINK-5841,PAYLOAD,2024-04-27 10:10:42,14.98323018,0.0003037,70.0009,1.9644,269.1881,90.893,-0.00012379,-1.569e-05,0.0,0 STARLINK-5841,1 56493U 23064AX  24118.42410033 -.00001569  00000-0 -12379-3 0  9993,2 56493  70.0009   1.9644 0003037 269.1881  90.8930 14.98323018 55049,6950.214,96.107,574.19,569.969,0.0
56493.0,STARLINK-5841,PAYLOAD,2024-04-27 14:59:06,14.98333748,0.0002756,70.0011,1.4592,271.6686,88.4157,-0.00024922,-3.066e-05,0.0,0 STARLINK-5841,1 56493U 23064AX  24118.62437656 -.00003066  00000-0 -24922-3 0  9996,2 56493  70.0011   1.4592 0002756 271.6686  88.4157 14.98333748 54715,6950.181,96.107,573.962,570.131,0.0
56493.0,STARLINK-5841,PAYLOAD,2024-04-27 19:47:30,14.98336142,0.0003114,70.0004,0.9546,275.1401,84.9402,-0.00028931,-3.544e-05,0.0,0 STARLINK-5841,1 56493U 23064AX  24118.82465582 -.00003544  00000-0 -28931-3 0  9992,2 56493  70.0004   0.9546 0003114 275.1401  84.9402 14.98336142 55102,6950.174,96.107,574.203,569.875,0.0
56493.0,STARLINK-5841,PAYLOAD,2024-04-27 21:23:41,14.98301175,0.000305,70.0009,0.7864,273.7342,86.3469,-0.00069402,-8.358e-05,0.0,0 STARLINK-5841,1 56493U 23064AX  24118.89144869 -.00008358  00000-0 -69402-3 0  9997,2 56493  70.0009   0.7864 0003050 273.7342  86.3469 14.98301175 54752,6950.282,96.109,574.267,570.027,0.0
56493.0,STARLINK-5841,PAYLOAD,2024-04-28 02:12:05,14.98301117,0.0003035,70.0008,0.2813,272.5793,87.5018,-0.00065718,-7.92e-05,0.0,0 STARLINK-5841,1 56493U 23064AX  24119.09173123 -.00007920  00000-0 -65718-3 0  9995,2 56493  70.0008   0.2813 0003035 272.5793  87.5018 14.98301117 55143,6950.282,96.109,574.257,570.038,0.0
56493.0,STARLINK-5841,PAYLOAD,2024-04-28 15:01:08,14.9830208,0.0003196,70.0005,358.9346,274.6325,85.4469,0.00012292,1.373e-05,0.0,0 STARLINK-5841,1 56493U 23064AX  24119.62579489  .00001373  00000-0  12292-3 0  9992,2 56493  70.0005 358.9346 0003196 274.6325  85.4469 14.98302080 54861,6950.279,96.109,574.366,569.923,0.0
56493.0,STARLINK-5841,PAYLOAD,2024-04-28 19:49:32,14.98306993,0.0003055,70.0007,358.4284,280.3527,79.7288,0.00018631,2.129e-05,0.0,0 STARLINK-5841,1 56493U 23064AX  24119.82607340  .00002129  00000-0  18631-3 0  9995,2 56493  70.0007 358.4284 0003055 280.3527  79.7288 14.98306993 55257,6950.264,96.108,574.252,570.006,0.0
56493.0,STARLINK-5841,PAYLOAD,2024-04-28 23:01:48,14.98317499,0.0002518,70.003,358.097,266.6632,93.4239,0.0003078,3.58e-05,0.0,0 STARLINK-5841,1 56493U 23064AX  24119.95958459  .00003580  00000-0  30780-3 0  9990,2 56493  70.0030 358.0970 0002518 266.6632  93.4239 14.98317499 54912,6950.232,96.108,573.847,570.346,0.0
56493.0,STARLINK-5841,PAYLOAD,2024-04-29 02:14:04,14.98318245,0.0002621,70.0023,357.7597,269.2906,90.7952,0.00027937,3.241e-05,0.0,0 STARLINK-5841,1 56493U 23064AX  24120.09310603  .00003241  00000-0  27937-3 0  9994,2 56493  70.0023 357.7597 0002621 269.2906  90.7952 14.98318245 55297,6950.229,96.108,573.916,570.273,0.0
56493.0,STARLINK-5841,PAYLOAD,2024-04-29 08:38:35,14.98331415,0.000317,70.0002,357.0831,275.7887,84.291,0.00023615,2.726e-05,0.0,0 STARLINK-5841,1 56493U 23064AX  24120.36013877  .00002726  00000-0  23615-3 0  9993,2 56493  70.0002 357.0831 0003170 275.7887  84.2910 14.98331415 55339,6950.189,96.107,574.257,569.85,0.0
56493.0,STARLINK-5841,PAYLOAD,2024-04-29 23:03:48,14.98340516,0.0003063,70.0004,355.5687,270.3007,89.7801,0.00021468,2.47e-05,0.0,0 STARLINK-5841,1 56493U 23064AX  24120.96097240  .00002470  00000-0  21468-3 0  9995,2 56493  70.0004 355.5687 0003063 270.3007  89.7801 14.98340516 55060,6950.16,96.106,574.154,569.897,0.0
56493.0,STARLINK-5841,PAYLOAD,2024-04-30 00:39:55,14.98341398,0.0002953,70.0005,355.4005,268.6198,91.4623,0.00022351,2.576e-05,0.0,0 STARLINK-5841,1 56493U 23064AX  24121.02773120  .00002576  00000-0  22351-3 0  9990,2 56493  70.0005 355.4005 0002953 268.6198  91.4623 14.98341398 55434,6950.158,96.106,574.075,569.97,0.0
56493.0,STARLINK-5841,PAYLOAD,2024-04-30 08:40:37,14.98321102,0.0003006,70.0004,354.5573,276.2367,83.8449,0.00043704,5.124e-05,0.0,0 STARLINK-5841,1 56493U 23064AX  24121.36154039  .00005124  00000-0  43704-3 0  9996,2 56493  70.0004 354.5573 0003006 276.2367  83.8449 14.98321102 55483,6950.22,96.108,574.175,569.996,0.0
56493.0,STARLINK-5841,PAYLOAD,2024-04-30 21:29:41,14.98336906,0.0002952,70.0005,353.2124,271.6002,88.4819,-8.5087e-05,-1.108e-05,0.0,0 STARLINK-5841,1 56493U 23064AX  24121.89562213 -.00001108  00000-0 -85087-4 0  9992,2 56493  70.0005 353.2124 0002952 271.6002  88.4819 14.98336906 55206,6950.172,96.107,574.088,569.985,0.0
56493.0,STARLINK-5841,PAYLOAD,2024-05-01 08:42:37,14.98338874,0.0002945,70.0004,352.0339,272.6905,87.3917,-4.9553e-05,-6.84e-06,0.0,0 STARLINK-5841,1 56493U 23064AX  24122.36293691 -.00000684  00000-0 -49553-4 0  9992,2 56493  70.0004 352.0339 0002945 272.6905  87.3917 14.98338874 55635,6950.165,96.106,574.077,569.984,0.0
56493.0,STARLINK-5841,PAYLOAD,2024-05-01 21:31:41,14.98343247,0.0002859,70.0006,350.6872,272.0248,88.0583,-6.3612e-05,-8.52e-06,0.0,0 STARLINK-5841,1 56493U 23064AX  24122.89701023 -.00000852  00000-0 -63612-4 0  9992,2 56493  70.0006 350.6872 0002859 272.0248  88.0583 14.98343247 55357,6950.152,96.106,574.004,570.03,0.0
56493.0,STARLINK-5841,PAYLOAD,2024-05-02 15:09:10,14.98326057,0.0002933,70.0001,348.8349,271.799,88.2833,-4.1341e-05,-5.86e-06,0.0,0 STARLINK-5841,1 56493U 23064AX  24123.63137693 -.00000586  00000-0 -41341-4 0  9990,2 56493  70.0001 348.8349 0002933 271.7990  88.2833 14.98326057 55465,6950.205,96.107,574.109,570.032,0.0
56493.0,STARLINK-5841,PAYLOAD,2024-05-02 21:33:43,14.98326021,0.0002978,70.0,348.1614,271.821,88.2608,-5.3801e-05,-7.35e-06,0.0,0 STARLINK-5841,1 56493U 23064AX  24123.89841768 -.00000735  00000-0 -53801-4 0  9993,2 56493  70.0000 348.1614 0002978 271.8210  88.2608 14.98326021 55862,6950.205,96.107,574.14,570.0,0.0
56493.0,STARLINK-5841,PAYLOAD,2024-05-03 15:11:11,14.98327247,0.0003024,69.9999,346.3096,269.3534,90.7279,-5.6553e-05,-7.68e-06,0.0,0 STARLINK-5841,1 56493U 23064AX  24124.63277660 -.00000768  00000-0 -56553-4 0  9993,2 56493  69.9999 346.3096 0003024 269.3534  90.7279 14.98327247 55610,6950.201,96.107,574.168,569.965,0.0
56493.0,STARLINK-5841,PAYLOAD,2024-05-03 21:35:44,14.98276827,0.0002695,69.9998,345.6369,274.8027,85.2824,0.00073408,8.665e-05,0.0,0 STARLINK-5841,1 56493U 23064AX  24124.89982158  .00008665  00000-0  73408-3 0  9995,2 56493  69.9998 345.6369 0002695 274.8027  85.2824 14.98276827 55651,6950.357,96.11,574.095,570.349,0.0
56493.0,STARLINK-5841,PAYLOAD,2024-05-04 00:48:00,14.98338348,0.0002943,69.9998,345.3001,268.1814,91.9008,-0.00024622,-3.03e-05,0.0,0 STARLINK-5841,1 56493U 23064AX  24125.03333625 -.00003030  00000-0 -24622-3 0  9998,2 56493  69.9998 345.3001 0002943 268.1814  91.9008 14.98338348 56035,6950.167,96.106,574.078,569.987,0.0
56493.0,STARLINK-5841,PAYLOAD,2024-05-05 00:50:00,14.98334294,0.0002864,69.9997,342.775,267.995,92.0881,8.8054e-05,9.58e-06,0.0,0 STARLINK-5841,1 56493U 23064AX  24126.03472936  .00000958  00000-0  88054-4 0  9992,2 56493  69.9997 342.7750 0002864 267.9950  92.0881 14.98334294 56189,6950.18,96.107,574.035,570.054,0.0
56493.0,STARLINK-5841,PAYLOAD,2024-05-05 13:39:05,14.98327525,0.0002858,70.0001,341.4297,272.1517,87.9314,0.00016298,1.852e-05,0.0,0 STARLINK-5841,1 56493U 23064AX  24126.56881054  .00001852  00000-0  16298-3 0  9999,2 56493  70.0001 341.4297 0002858 272.1517  87.9314 14.98327525 55902,6950.201,96.107,574.052,570.079,0.0
56493.0,STARLINK-5841,PAYLOAD,2024-05-05 21:39:45,14.98331265,0.0003057,69.9994,340.5858,267.9683,92.1126,0.00010043,1.106e-05,0.0,0 STARLINK-5841,1 56493U 23064AX  24126.90260928  .00001106  00000-0  10043-3 0  9992,2 56493  69.9994 340.5858 0003057 267.9683  92.1126 14.98331265 55951,6950.189,96.107,574.179,569.929,0.0
56493.0,STARLINK-5841,PAYLOAD,2024-05-06 07:16:33,14.98346918,0.0002842,70.0002,339.577,271.3011,88.7823,-0.00025033,-3.08e-05,0.0,0 STARLINK-5841,1 56493U 23064AX  24127.30316775 -.00003080  00000-0 -25033-3 0  9999,2 56493  70.0002 339.5770 0002842 271.3011  88.7823 14.98346918 56373,6950.141,96.106,573.981,570.03,0.0
